[{"OBJECT_NAME":"STARLINK-1515","OBJECT_ID":"2020-055AQ","EPOCH":"2023-05-30T12:32:17.935584","MEAN_MOTION":15.06397281,"ECCENTRICITY":0.0001016,"INCLINATION":53.056,"RA_OF_ASC_NODE":329.3855,"ARG_OF_PERICENTER":60.3028,"MEAN_ANOMALY":299.8062,"EPHEMERIS_TYPE":0,"CLASSIFICATION_TYPE":"U","NORAD_CAT_ID":46065,"ELEMENT_SET_NO":999,"REV_AT_EPOCH":15643,"BSTAR":0.00034494,"MEAN_MOTION_DOT":4.86e-5,"MEAN_MOTION_DDOT":0},{"OBJECT_NAME":"STARLINK-1525","OBJECT_ID":"2020-055AR","EPOCH":"2023-05-30T11:03:25.753536","MEAN_MOTION":15.06395629,"ECCENTRICITY":0.0001178,"INCLINATION":53.0554,"RA_OF_ASC_NODE":329.6657,"ARG_OF_PERICENTER":77.498,"MEAN_ANOMALY":282.614,"EPHEMERIS_TYPE":0,"CLASSIFICATION_TYPE":"U","NORAD_CAT_ID":46066,"ELEMENT_SET_NO":999,"REV_AT_EPOCH":15643,"BSTAR":0.00016144,"MEAN_MOTION_DOT":2.124e-5,"MEAN_MOTION_DDOT":0},{"OBJECT_NAME":"STARLINK-1529","OBJECT_ID":"2020-055AS","EPOCH":"2023-05-30T11:07:23.105568","MEAN_MOTION":15.06389121,"ECCENTRICITY":9.56e-5,"INCLINATION":53.0555,"RA_OF_ASC_NODE":329.6458,"ARG_OF_PERICENTER":85.5262,"MEAN_ANOMALY":274.5836,"EPHEMERIS_TYPE":0,"CLASSIFICATION_TYPE":"U","NORAD_CAT_ID":46067,"ELEMENT_SET_NO":999,"REV_AT_EPOCH":15644,"BSTAR":0.00070721,"MEAN_MOTION_DOT":0.00010265,"MEAN_MOTION_DDOT":0},{"OBJECT_NAME":"STARLINK-1532","OBJECT_ID":"2020-055AT","EPOCH":"2023-05-30T11:23:17.594880","MEAN_MOTION":15.0641011,"ECCENTRICITY":8.43e-5,"INCLINATION":53.0543,"RA_OF_ASC_NODE":329.5965,"ARG_OF_PERICENTER":83.9187,"MEAN_ANOMALY":276.1898,"EPHEMERIS_TYPE":0,"CLASSIFICATION_TYPE":"U","NORAD_CAT_ID":46068,"ELEMENT_SET_NO":999,"REV_AT_EPOCH":15644,"BSTAR":0.00068425,"MEAN_MOTION_DOT":9.928e-5,"MEAN_MOTION_DDOT":0},{"OBJECT_NAME":"STARLINK-1533","OBJECT_ID":"2020-055AU","EPOCH":"2023-05-30T11:45:53.634240","MEAN_MOTION":15.06407167,"ECCENTRICITY":0.0001002,"INCLINATION":53.0541,"RA_OF_ASC_NODE":329.5365,"ARG_OF_PERICENTER":80.7226,"MEAN_ANOMALY":279.3877,"EPHEMERIS_TYPE":0,"CLASSIFICATION_TYPE":"U","NORAD_CAT_ID":46069,"ELEMENT_SET_NO":999,"REV_AT_EPOCH":15645,"BSTAR":0.00092112,"MEAN_MOTION_DOT":0.00013468,"MEAN_MOTION_DDOT":0},{"OBJECT_NAME":"STARLINK-1536","OBJECT_ID":"2020-055AV","EPOCH":"2023-05-30T12:07:07.364640","MEAN_MOTION":15.06408006,"ECCENTRICITY":8.32e-5,"INCLINATION":53.054,"RA_OF_ASC_NODE":329.4686,"ARG_OF_PERICENTER":81.3642,"MEAN_ANOMALY":278.7441,"EPHEMERIS_TYPE":0,"CLASSIFICATION_TYPE":"U","NORAD_CAT_ID":46070,"ELEMENT_SET_NO":999,"REV_AT_EPOCH":15645,"BSTAR":0.00088937,"MEAN_MOTION_DOT":0.00012993,"MEAN_MOTION_DDOT":0},{"OBJECT_NAME":"STARLINK-1538","OBJECT_ID":"2020-055AW","EPOCH":"2023-05-30T10:58:07.412736","MEAN_MOTION":15.06399387,"ECCENTRICITY":0.0001096,"INCLINATION":53.0555,"RA_OF_ASC_NODE":329.6831,"ARG_OF_PERICENTER":75.6859,"MEAN_ANOMALY":284.4251,"EPHEMERIS_TYPE":0,"CLASSIFICATION_TYPE":"U","NORAD_CAT_ID":46071,"ELEMENT_SET_NO":999,"REV_AT_EPOCH":15644,"BSTAR":0.0004309,"MEAN_MOTION_DOT":6.143e-5,"MEAN_MOTION_DDOT":0},{"OBJECT_NAME":"STARLINK-1539","OBJECT_ID":"2020-055AX","EPOCH":"2023-05-30T11:33:54.816480","MEAN_MOTION":15.06404343,"ECCENTRICITY":8.3e-5,"INCLINATION":53.0547,"RA_OF_ASC_NODE":329.5736,"ARG_OF_PERICENTER":92.8844,"MEAN_ANOMALY":267.224,"EPHEMERIS_TYPE":0,"CLASSIFICATION_TYPE":"U","NORAD_CAT_ID":46072,"ELEMENT_SET_NO":999,"REV_AT_EPOCH":15643,"BSTAR":0.00031175,"MEAN_MOTION_DOT":4.366e-5,"MEAN_MOTION_DDOT":0},{"OBJECT_NAME":"STARLINK-1542","OBJECT_ID":"2020-055AY","EPOCH":"2023-05-30T05:34:21.130464","MEAN_MOTION":15.06401054,"ECCENTRICITY":7.64e-5,"INCLINATION":53.0533,"RA_OF_ASC_NODE":330.6987,"ARG_OF_PERICENTER":87.4857,"MEAN_ANOMALY":272.622,"EPHEMERIS_TYPE":0,"CLASSIFICATION_TYPE":"U","NORAD_CAT_ID":46073,"ELEMENT_SET_NO":999,"REV_AT_EPOCH":15640,"BSTAR":0.00096052,"MEAN_MOTION_DOT":0.00014055,"MEAN_MOTION_DDOT":0},{"OBJECT_NAME":"STARLINK-1549","OBJECT_ID":"2020-055AZ","EPOCH":"2023-05-30T11:35:16.552608","MEAN_MOTION":15.06400091,"ECCENTRICITY":7.91e-5,"INCLINATION":53.0539,"RA_OF_ASC_NODE":329.5703,"ARG_OF_PERICENTER":89.4977,"MEAN_ANOMALY":270.6103,"EPHEMERIS_TYPE":0,"CLASSIFICATION_TYPE":"U","NORAD_CAT_ID":46074,"ELEMENT_SET_NO":999,"REV_AT_EPOCH":15643,"BSTAR":0.0011407,"MEAN_MOTION_DOT":0.0001675,"MEAN_MOTION_DDOT":0},{"OBJECT_NAME":"STARLINK-1551","OBJECT_ID":"2020-055BA","EPOCH":"2023-05-29T18:41:29.863104","MEAN_MOTION":15.06388793,"ECCENTRICITY":0.0001175,"INCLINATION":53.0544,"RA_OF_ASC_NODE":332.7279,"ARG_OF_PERICENTER":86.9793,"MEAN_ANOMALY":273.133,"EPHEMERIS_TYPE":0,"CLASSIFICATION_TYPE":"U","NORAD_CAT_ID":46075,"ELEMENT_SET_NO":999,"REV_AT_EPOCH":15633,"BSTAR":0.0002161,"MEAN_MOTION_DOT":2.938e-5,"MEAN_MOTION_DDOT":0},{"OBJECT_NAME":"STARLINK-1552","OBJECT_ID":"2020-055BB","EPOCH":"2023-05-30T11:14:02.306400","MEAN_MOTION":15.06407862,"ECCENTRICITY":0.0001172,"INCLINATION":53.0546,"RA_OF_ASC_NODE":329.6376,"ARG_OF_PERICENTER":114.6751,"MEAN_ANOMALY":245.436,"EPHEMERIS_TYPE":0,"CLASSIFICATION_TYPE":"U","NORAD_CAT_ID":46076,"ELEMENT_SET_NO":999,"REV_AT_EPOCH":15590,"BSTAR":0.0010188,"MEAN_MOTION_DOT":0.00014929,"MEAN_MOTION_DDOT":0},{"OBJECT_NAME":"STARLINK-1559","OBJECT_ID":"2020-055BC","EPOCH":"2023-05-30T12:23:02.774112","MEAN_MOTION":15.06410901,"ECCENTRICITY":0.0001004,"INCLINATION":53.0561,"RA_OF_ASC_NODE":329.4187,"ARG_OF_PERICENTER":83.4266,"MEAN_ANOMALY":276.6837,"EPHEMERIS_TYPE":0,"CLASSIFICATION_TYPE":"U","NORAD_CAT_ID":46077,"ELEMENT_SET_NO":999,"REV_AT_EPOCH":15640,"BSTAR":0.0010706,"MEAN_MOTION_DOT":0.00015706,"MEAN_MOTION_DDOT":0},{"OBJECT_NAME":"STARLINK-1563","OBJECT_ID":"2020-055BD","EPOCH":"2023-05-30T05:29:02.747328","MEAN_MOTION":15.06400504,"ECCENTRICITY":9.15e-5,"INCLINATION":53.0547,"RA_OF_ASC_NODE":330.7131,"ARG_OF_PERICENTER":78.1718,"MEAN_ANOMALY":281.9373,"EPHEMERIS_TYPE":0,"CLASSIFICATION_TYPE":"U","NORAD_CAT_ID":46078,"ELEMENT_SET_NO":999,"REV_AT_EPOCH":15637,"BSTAR":0.00078734,"MEAN_MOTION_DOT":0.00011465,"MEAN_MOTION_DDOT":0},{"OBJECT_NAME":"STARLINK-1566","OBJECT_ID":"2020-055BE","EPOCH":"2023-05-30T11:40:35.140512","MEAN_MOTION":15.06394166,"ECCENTRICITY":7.99e-5,"INCLINATION":53.0547,"RA_OF_ASC_NODE":329.5503,"ARG_OF_PERICENTER":99.7038,"MEAN_ANOMALY":260.4041,"EPHEMERIS_TYPE":0,"CLASSIFICATION_TYPE":"U","NORAD_CAT_ID":46079,"ELEMENT_SET_NO":999,"REV_AT_EPOCH":15644,"BSTAR":0.00034616,"MEAN_MOTION_DOT":4.878e-5,"MEAN_MOTION_DDOT":0},{"OBJECT_NAME":"STARLINK-1568","OBJECT_ID":"2020-055BF","EPOCH":"2023-05-30T12:16:23.467872","MEAN_MOTION":15.06390735,"ECCENTRICITY":0.0001065,"INCLINATION":53.0539,"RA_OF_ASC_NODE":329.4281,"ARG_OF_PERICENTER":69.713,"MEAN_ANOMALY":290.3974,"EPHEMERIS_TYPE":0,"CLASSIFICATION_TYPE":"U","NORAD_CAT_ID":46080,"ELEMENT_SET_NO":999,"REV_AT_EPOCH":15642,"BSTAR":0.00076085,"MEAN_MOTION_DOT":0.00011067,"MEAN_MOTION_DDOT":0},{"OBJECT_NAME":"STARLINK-1571","OBJECT_ID":"2020-055BG","EPOCH":"2023-05-30T11:29:58.242912","MEAN_MOTION":15.0641295,"ECCENTRICITY":5.92e-5,"INCLINATION":53.054,"RA_OF_ASC_NODE":329.5883,"ARG_OF_PERICENTER":80.5619,"MEAN_ANOMALY":279.5437,"EPHEMERIS_TYPE":0,"CLASSIFICATION_TYPE":"U","NORAD_CAT_ID":46081,"ELEMENT_SET_NO":999,"REV_AT_EPOCH":15643,"BSTAR":0.0013312,"MEAN_MOTION_DOT":0.00019609,"MEAN_MOTION_DDOT":0}]
