STARLINK-1515           
1 46065U 20055AQ  23150.52242981  .00004860  00000+0  34494-3 0  9991
2 46065  53.0560 329.3855 0001016  60.3028 299.8062 15.06397281156431
STARLINK-1525           
1 46066U 20055AR  23150.46071474  .00002124  00000+0  16144-3 0  9995
2 46066  53.0554 329.6657 0001178  77.4980 282.6140 15.06395629156434
STARLINK-1529           
1 46067U 20055AS  23150.46346187  .00010265  00000+0  70721-3 0  9998
2 46067  53.0555 329.6458 0000956  85.5262 274.5836 15.06389121156444
STARLINK-1532           
1 46068U 20055AT  23150.47450920  .00009928  00000+0  68425-3 0  9993
2 46068  53.0543 329.5965 0000843  83.9187 276.1898 15.06410110156446
STARLINK-1533           
1 46069U 20055AU  23150.49020410  .00013468  00000+0  92112-3 0  9997
2 46069  53.0541 329.5365 0001002  80.7226 279.3877 15.06407167156457
STARLINK-1536           
1 46070U 20055AV  23150.50494635  .00012993  00000+0  88937-3 0  9997
2 46070  53.0540 329.4686 0000832  81.3642 278.7441 15.06408006156455
STARLINK-1538           
1 46071U 20055AW  23150.45703024  .00006143  00000+0  43090-3 0  9998
2 46071  53.0555 329.6831 0001096  75.6859 284.4251 15.06399387156448
STARLINK-1539           
1 46072U 20055AX  23150.48188445  .00004366  00000+0  31175-3 0  9992
2 46072  53.0547 329.5736 0000830  92.8844 267.2240 15.06404343156438
STARLINK-1542           
1 46073U 20055AY  23150.23218901  .00014055  00000+0  96052-3 0  9998
2 46073  53.0533 330.6987 0000764  87.4857 272.6220 15.06401054156406
STARLINK-1549           
1 46074U 20055AZ  23150.48283047  .00016750  00000+0  11407-2 0  9993
2 46074  53.0539 329.5703 0000791  89.4977 270.6103 15.06400091156432
STARLINK-1551           
1 46075U 20055BA  23149.77881786  .00002938  00000+0  21610-3 0  9999
2 46075  53.0544 332.7279 0001175  86.9793 273.1330 15.06388793156331
STARLINK-1552           
1 46076U 20055BB  23150.46808225  .00014929  00000+0  10188-2 0  9995
2 46076  53.0546 329.6376 0001172 114.6751 245.4360 15.06407862155903
STARLINK-1559           
1 46077U 20055BC  23150.51600433  .00015706  00000+0  10706-2 0  9993
2 46077  53.0561 329.4187 0001004  83.4266 276.6837 15.06410901156406
STARLINK-1563           
1 46078U 20055BD  23150.22850402  .00011465  00000+0  78734-3 0  9999
2 46078  53.0547 330.7131 0000915  78.1718 281.9373 15.06400504156376
STARLINK-1566           
1 46079U 20055BE  23150.48651783  .00004878  00000+0  34616-3 0  9990
2 46079  53.0547 329.5503 0000799  99.7038 260.4041 15.06394166156448
STARLINK-1568           
1 46080U 20055BF  23150.51138273  .00011067  00000+0  76085-3 0  9994
2 46080  53.0539 329.4281 0001065  69.7130 290.3974 15.06390735156423
STARLINK-1571           
1 46081U 20055BG  23150.47914633  .00019609  00000+0  13312-2 0  9995
2 46081  53.0540 329.5883 0000592  80.5619 279.5437 15.06412950156430
